GSAT0206 (GALILEO 10)   
1 40890U 15045B   17344.21270664 -.00000059  00000-0  00000-0 0  9998
2 40890  56.8856 307.3283 0002472 306.6998  53.2646  1.70474381 14009
